PANDORA
1 67395U 80229J   26070.98446759  .00000000  00000-0  37770-3 0    08
2 67395  97.8020  71.1726 0006778  90.3343 190.8293 14.87844821    01
